[{"OBJECT_NAME":"STARLINK-31848","OBJECT_ID":"2024-093C","EPOCH":"2026-03-09T09:57:19.658304","MEAN_MOTION":15.27561249,"ECCENTRICITY":0.00010998,"INCLINATION":43.0002,"RA_OF_ASC_NODE":206.9663,"ARG_OF_PERICENTER":289.2615,"MEAN_ANOMALY":70.8118,"EPHEMERIS_TYPE":0,"CLASSIFICATION_TYPE":"U","NORAD_CAT_ID":59784,"ELEMENT_SET_NO":999,"REV_AT_EPOCH":10269,"BSTAR":-6.495865e-6,"MEAN_MOTION_DOT":-4.41e-6,"MEAN_MOTION_DDOT":0},{"OBJECT_NAME":"COSMOS 660","OBJECT_ID":"1974-044A","EPOCH":"2026-03-09T22:24:08.129952","MEAN_MOTION":14.66679771,"ECCENTRICITY":0.04337529,"INCLINATION":82.9408,"RA_OF_ASC_NODE":355.0742,"ARG_OF_PERICENTER":327.8768,"MEAN_ANOMALY":29.6656,"EPHEMERIS_TYPE":0,"CLASSIFICATION_TYPE":"U","NORAD_CAT_ID":7337,"ELEMENT_SET_NO":999,"REV_AT_EPOCH":62706,"BSTAR":0.0004937415,"MEAN_MOTION_DOT":0.0001202,"MEAN_MOTION_DDOT":0}]
